{
  "altimeter" : {
    "repr" : "Q1013",
    "spoken" : "one zero one three",
    "value" : 1013
  },
  "clouds" : [],
  "density_altitude" : 860,
  "dewpoint" : {
    "repr" : "18",
    "spoken" : "one eight",
    "value" : 18
  },
  "flight_rules" : "VFR",
  "meta" : {
    "cache-timestamp" : "2024-06-21T06:06:02.795000Z",
    "stations_updated" : "2024-05-13",
    "timestamp" : "2024-06-21T06:06:56.146947Z"
  },
  "other" : [],
  "pressure_altitude" : 308,
  "raw" : "EDDK 210550Z AUTO 17004KT 130V190 CAVOK 19/18 Q1013 NOSIG",
  "relative_humidity" : 0.93924323454253444,
  "remarks" : "NOSIG",
  "remarks_info" : {
    "codes" : [],
    "dewpoint_decimal" : null,
    "maximum_temperature_24" : null,
    "maximum_temperature_6" : null,
    "minimum_temperature_24" : null,
    "minimum_temperature_6" : null,
    "precip_24_hours" : null,
    "precip_36_hours" : null,
    "precip_hourly" : null,
    "pressure_tendency" : null,
    "sea_level_pressure" : null,
    "snow_depth" : null,
    "sunshine_minutes" : null,
    "temperature_decimal" : null
  },
  "runway_visibility" : [],
  "sanitized" : "EDDK 210550Z 17004KT 130V190 CAVOK 19/18 Q1013 NOSIG",
  "station" : "EDDK",
  "temperature" : {
    "repr" : "19",
    "spoken" : "one nine",
    "value" : 19
  },
  "time" : {
    "dt" : "2024-06-21T05:50:00Z",
    "repr" : "210550Z"
  },
  "units" : {
    "accumulation" : "in",
    "altimeter" : "hPa",
    "altitude" : "ft",
    "temperature" : "C",
    "visibility" : "m",
    "wind_speed" : "kt"
  },
  "visibility" : {
    "repr" : "CAVOK",
    "spoken" : "ceiling and visibility ok",
    "value" : 9999
  },
  "wind_direction" : {
    "repr" : "170",
    "spoken" : "one seven zero",
    "value" : 170
  },
  "wind_gust" : null,
  "wind_speed" : {
    "repr" : "04",
    "spoken" : "four",
    "value" : 4
  },
  "wind_variable_direction" : [
    {
      "repr" : "130",
      "spoken" : "one three zero",
      "value" : 130
    },
    {
      "repr" : "190",
      "spoken" : "one nine zero",
      "value" : 190
    }
  ],
  "wx_codes" : []
}
